[
  {
    "address": "1509 Culver St",
    "city": "Culver",
    "zip": "97451",
    "state": "Unknown"
  },
  {
    "address": "1509 Culver St",
    "city": "Culver",
    "zip": "97451",
    "state": "Unknown"
  },
  {
    "address": "1509 Culver St",
    "city": "Culver",
    "zip": "97451",
    "state": "Unknown"
  },
  {
    "address": "1509 Culver St",
    "city": "Culver",
    "zip": "97451",
    "state": "Unknown"
  },
  {
    "address": "1509 Culver St",
    "city": "Culver",
    "zip": "97451",
    "state": "Unknown"
  },
  {
    "address": "29 15th St",
    "city": "Culver",
    "zip": "97451",
    "state": "Unknown"
  },
  {
    "address": "834 Binoc Ave",
    "city": "Culver",
    "zip": "97451",
    "state": "Unknown"
  },
  {
    "address": "644 Gershwin Cir",
    "city": "Culver",
    "zip": "97451",
    "state": "Unknown"
  },
  {
    "address": "748 Townings Dr",
    "city": "Culver",
    "zip": "97451",
    "state": "Unknown"
  },
  {
    "address": "112 Steppes Pl",
    "city": "Culver",
    "zip": "97451",
    "state": "Unknown"
  },
  {
    "address": "489 Manchester St",
    "city": "Culver",
    "zip": "97451",

    "state": "Unknown"
  },
  {
    "address": "892 Downing Ct",
    "city": "Culver",
    "zip": "97451",

    "state": "Unknown"
  },
  {
    "address": "892 Downing Ct",
    "city": "Culver",
    "zip": "97451",
    "state": "Unknown"
  },
  {
    "address": "892 Downing Ct",
    "city": "Culver",
    "zip": "97451",
    "state": "Unknown"
  },
  {
    "address": "908 73rd St",
    "city": "Culver",
    "zip": "97451",

    "state": "Unknown"
  },
  {
    "address": "908 73rd St",
    "city": "Culver",
    "zip": "97451",
    "state": "Unknown"
  },
  {
    "address": "112 Steppes Pl",
    "city": "Culver",
    "zip": "97451",

    "state": "Unknown"
  },
  {
    "address": "112 Steppes Pl",
    "city": "Culver",
    "zip": "97451",
    "state": "Unknown"
  },
  {
    "address": "947 E. Rose Dr",
    "city": "Culver",
    "zip": "97451",

    "state": "Unknown"
  },
  {
    "address": "947 E. Rose Dr",
    "city": "Culver",
    "zip": "97451",
    "state": "Unknown"
  },
  {
    "address": "947 E. Rose Dr",
    "city": "Culver",
    "zip": "97451",
    "state": "Unknown"
  },
  {
    "address": "748 Townings Dr",
    "city": "Culver",
    "zip": "97451",

    "state": "Unknown"
  },
  {
    "address": "951 LoneTree Rd",
    "city": "Culver",
    "zip": "97451",
    "state": "Unknown"
  }
]
